{
  "type": "FeatureCollection",
  "features": [
    {
      "type": "Feature",
      "properties": {
        "norad_id": 32275,
        "name": "COSMOS 2433 (720)",
        "group": "glo-ops",
        "lat": -60.37057650615142,
        "lon": -90.9048806246366,
        "alt_km": 19124.90415516985,
        "timestamp": "2025-12-26T14:28:47.962719+00:00",
        "meta_object_name": "COSMOS 2433 (720)",
        "meta_object_id": "2007-052A",
        "meta_epoch": "2025-12-26T05:29:12.769728",
        "meta_mean_motion": 2.1310417,
        "meta_eccentricity": 0.00050938,
        "meta_inclination": 65.676,
        "meta_ra_of_asc_node": 321.7529,
        "meta_arg_of_pericenter": 257.2732,
        "meta_mean_anomaly": 102.6736,
        "meta_ephemeris_type": 0,
        "meta_classification_type": "U",
        "meta_norad_cat_id": 32275,
        "meta_element_set_no": 999,
        "meta_rev_at_epoch": 14137,
        "meta_bstar": 0,
        "meta_mean_motion_dot": -3.3e-07,
        "meta_mean_motion_ddot": 0,
        "tle_line1": "1 32275U 07052A   25360.22862002 -.00000033  00000+0  00000+0 0  9996",
        "tle_line2": "2 32275  65.6760 321.7529 0005093 257.2732 102.6736  2.13104170141375"
      },
      "geometry": {
        "type": "Point",
        "coordinates": [
          -90.9048806246366,
          -60.37057650615142
        ]
      }
    },
    {
      "type": "Feature",
      "properties": {
        "norad_id": 32276,
        "name": "COSMOS 2432 (719)",
        "group": "glo-ops",
        "lat": -45.70590776442132,
        "lon": 169.42943744707136,
        "alt_km": 19131.692894488195,
        "timestamp": "2025-12-26T14:28:47.962742+00:00",
        "meta_object_name": "COSMOS 2432 (719)",
        "meta_object_id": "2007-052B",
        "meta_epoch": "2025-12-24T04:32:38.772960",
        "meta_mean_motion": 2.13103387,
        "meta_eccentricity": 0.00113791,
        "meta_inclination": 65.6931,
        "meta_ra_of_asc_node": 321.9458,
        "meta_arg_of_pericenter": 314.7871,
        "meta_mean_anomaly": 225.1187,
        "meta_ephemeris_type": 0,
        "meta_classification_type": "U",
        "meta_norad_cat_id": 32276,
        "meta_element_set_no": 999,
        "meta_rev_at_epoch": 14135,
        "meta_bstar": 0,
        "meta_mean_motion_dot": -3.3e-07,
        "meta_mean_motion_ddot": 0,
        "tle_line1": "1 32276U 07052B   25358.18933765 -.00000033  00000+0  00000+0 0  9994",
        "tle_line2": "2 32276  65.6931 321.9458 0011379 314.7871 225.1187  2.13103387141354"
      },
      "geometry": {
        "type": "Point",
        "coordinates": [
          169.42943744707136,
          -45.70590776442132
        ]
      }
    },
    {
      "type": "Feature",
      "properties": {
        "norad_id": 32393,
        "name": "COSMOS 2434 (721)",
        "group": "glo-ops",
        "lat": 1.7573294541730462,
        "lon": 16.892477477454953,
        "alt_km": 19133.585282184635,
        "timestamp": "2025-12-26T14:28:47.962758+00:00",
        "meta_object_name": "COSMOS 2434 (721)",
        "meta_object_id": "2007-065A",
        "meta_epoch": "2025-12-26T03:18:00.211680",
        "meta_mean_motion": 2.13101396,
        "meta_eccentricity": 0.00048072,
        "meta_inclination": 64.3159,
        "meta_ra_of_asc_node": 197.7509,
        "meta_arg_of_pericenter": 72.2168,
        "meta_mean_anomaly": 108.4046,
        "meta_ephemeris_type": 0,
        "meta_classification_type": "U",
        "meta_norad_cat_id": 32393,
        "meta_element_set_no": 999,
        "meta_rev_at_epoch": 14008,
        "meta_bstar": 0,
        "meta_mean_motion_dot": 1.11e-06,
        "meta_mean_motion_ddot": 0,
        "tle_line1": "1 32393U 07065A   25360.13750245  .00000111  00000+0  00000+0 0  9992",
        "tle_line2": "2 32393  64.3159 197.7509 0004807  72.2168 108.4046  2.13101396140085"
      },
      "geometry": {
        "type": "Point",
        "coordinates": [
          16.892477477454953,
          1.7573294541730462
        ]
      }
    },
    {
      "type": "Feature",
      "properties": {
        "norad_id": 32395,
        "name": "COSMOS 2436 (723)",
        "group": "glo-ops",
        "lat": -43.01952953260282,
        "lon": 171.1259106546625,
        "alt_km": 19112.164610911062,
        "timestamp": "2025-12-26T14:28:47.962770+00:00",
        "meta_object_name": "COSMOS 2436 (723)",
        "meta_object_id": "2007-065C",
        "meta_epoch": "2025-12-25T23:03:53.315136",
        "meta_mean_motion": 2.13100182,
        "meta_eccentricity": 0.00178233,
        "meta_inclination": 64.3246,
        "meta_ra_of_asc_node": 197.8273,
        "meta_arg_of_pericenter": 10.3053,
        "meta_mean_anomaly": 167.956,
        "meta_ephemeris_type": 0,
        "meta_classification_type": "U",
        "meta_norad_cat_id": 32395,
        "meta_element_set_no": 999,
        "meta_rev_at_epoch": 14003,
        "meta_bstar": 0,
        "meta_mean_motion_dot": 1.1e-06,
        "meta_mean_motion_ddot": 0,
        "tle_line1": "1 32395U 07065C   25359.96103374  .00000110  00000+0  00000+0 0  9997",
        "tle_line2": "2 32395  64.3246 197.8273 0017823  10.3053 167.9560  2.13100182140039"
      },
      "geometry": {
        "type": "Point",
        "coordinates": [
          171.1259106546625,
          -43.01952953260282
        ]
      }
    },
    {
      "type": "Feature",
      "properties": {
        "norad_id": 36111,
        "name": "COSMOS 2456 (730)",
        "group": "glo-ops",
        "lat": -22.38955879488728,
        "lon": 65.76156608922197,
        "alt_km": 19125.87744971702,
        "timestamp": "2025-12-26T14:28:47.962782+00:00",
        "meta_object_name": "COSMOS 2456 (730)",
        "meta_object_id": "2009-070A",
        "meta_epoch": "2025-12-26T06:16:15.549312",
        "meta_mean_motion": 2.13103733,
        "meta_eccentricity": 0.0003681,
        "meta_inclination": 64.907,
        "meta_ra_of_asc_node": 76.8759,
        "meta_arg_of_pericenter": 294.867,
        "meta_mean_anomaly": 137.8789,
        "meta_ephemeris_type": 0,
        "meta_classification_type": "U",
        "meta_norad_cat_id": 36111,
        "meta_element_set_no": 999,
        "meta_rev_at_epoch": 12474,
        "meta_bstar": 0,
        "meta_mean_motion_dot": -8e-08,
        "meta_mean_motion_ddot": 0,
        "tle_line1": "1 36111U 09070A   25360.26129108 -.00000008  00000+0  00000+0 0  9990",
        "tle_line2": "2 36111  64.9070  76.8759 0003681 294.8670 137.8789  2.13103733124740"
      },
      "geometry": {
        "type": "Point",
        "coordinates": [
          65.76156608922197,
          -22.38955879488728
        ]
      }
    },
    {
      "type": "Feature",
      "properties": {
        "norad_id": 36112,
        "name": "COSMOS 2457 (733)",
        "group": "glo-ops",
        "lat": 61.439995992123784,
        "lon": -162.62018951987298,
        "alt_km": 19117.532332679628,
        "timestamp": "2025-12-26T14:28:47.962794+00:00",
        "meta_object_name": "COSMOS 2457 (733)",
        "meta_object_id": "2009-070B",
        "meta_epoch": "2025-12-25T12:53:15.895392",
        "meta_mean_motion": 2.13101109,
        "meta_eccentricity": 0.0004451,
        "meta_inclination": 64.8923,
        "meta_ra_of_asc_node": 76.7479,
        "meta_arg_of_pericenter": 163.6164,
        "meta_mean_anomaly": 202.4906,
        "meta_ephemeris_type": 0,
        "meta_classification_type": "U",
        "meta_norad_cat_id": 36112,
        "meta_element_set_no": 999,
        "meta_rev_at_epoch": 12473,
        "meta_bstar": 0,
        "meta_mean_motion_dot": -5e-08,
        "meta_mean_motion_ddot": 0,
        "tle_line1": "1 36112U 09070B   25359.53698953 -.00000005  00000+0  00000+0 0  9995",
        "tle_line2": "2 36112  64.8923  76.7479 0004451 163.6164 202.4906  2.13101109124736"
      },
      "geometry": {
        "type": "Point",
        "coordinates": [
          -162.62018951987298,
          61.439995992123784
        ]
      }
    },
    {
      "type": "Feature",
      "properties": {
        "norad_id": 36402,
        "name": "COSMOS 2460 (732)",
        "group": "glo-ops",
        "lat": 62.06625767096454,
        "lon": 81.13557774511341,
        "alt_km": 19129.18271514293,
        "timestamp": "2025-12-26T14:28:47.962806+00:00",
        "meta_object_name": "COSMOS 2460 (732)",
        "meta_object_id": "2010-007C",
        "meta_epoch": "2025-12-25T05:13:15.714336",
        "meta_mean_motion": 2.13106358,
        "meta_eccentricity": 0.00024876,
        "meta_inclination": 65.5229,
        "meta_ra_of_asc_node": 320.3522,
        "meta_arg_of_pericenter": 284.3328,
        "meta_mean_anomaly": 196.3839,
        "meta_ephemeris_type": 0,
        "meta_classification_type": "U",
        "meta_norad_cat_id": 36402,
        "meta_element_set_no": 999,
        "meta_rev_at_epoch": 12302,
        "meta_bstar": 0,
        "meta_mean_motion_dot": -3.2e-07,
        "meta_mean_motion_ddot": 0,
        "tle_line1": "1 36402U 10007C   25359.21754299 -.00000032  00000+0  00000+0 0  9990",
        "tle_line2": "2 36402  65.5229 320.3522 0002487 284.3328 196.3839  2.13106358123020"
      },
      "geometry": {
        "type": "Point",
        "coordinates": [
          81.13557774511341,
          62.06625767096454
        ]
      }
    }
  ]
}